{
  "type": "FeatureCollection",
  "name": "terra-pantry-regions",
  "crs": {
    "type": "name",
    "properties": {
      "name": "urn:ogc:def:crs:OGC:1.3:CRS84"
    }
  },
  "features": [
    {
      "type": "Feature",
      "id": "greece",
      "properties": {
        "id": "greece",
        "name": "Greece",
        "shortName": "Greece",
        "color": "#c4a574",
        "highlight": "#e8d4a8",
        "climateBand": "mediterranean"
      },
      "geometry": {
        "type": "Polygon",
        "coordinates": [
          [
            [
              19.4,
              39.7
            ],
            [
              20.0,
              39.0
            ],
            [
              20.7,
              38.3
            ],
            [
              21.2,
              37.6
            ],
            [
              22.0,
              36.8
            ],
            [
              22.5,
              36.4
            ],
            [
              23.0,
              36.2
            ],
            [
              23.7,
              36.5
            ],
            [
              24.1,
              37.0
            ],
            [
              24.5,
              37.8
            ],
            [
              25.0,
              38.2
            ],
            [
              25.5,
              38.0
            ],
            [
              26.2,
              37.5
            ],
            [
              26.8,
              37.0
            ],
            [
              27.2,
              36.5
            ],
            [
              27.8,
              36.2
            ],
            [
              28.0,
              36.5
            ],
            [
              27.5,
              37.2
            ],
            [
              27.0,
              37.8
            ],
            [
              26.5,
              38.5
            ],
            [
              26.0,
              39.0
            ],
            [
              25.5,
              39.5
            ],
            [
              24.8,
              40.0
            ],
            [
              24.0,
              40.5
            ],
            [
              23.5,
              40.8
            ],
            [
              22.8,
              41.0
            ],
            [
              22.0,
              41.2
            ],
            [
              21.5,
              41.0
            ],
            [
              21.0,
              40.8
            ],
            [
              20.5,
              40.5
            ],
            [
              20.0,
              40.2
            ],
            [
              19.6,
              39.9
            ],
            [
              19.4,
              39.7
            ]
          ]
        ]
      }
    },
    {
      "type": "Feature",
      "id": "albania",
      "properties": {
        "id": "albania",
        "name": "Albania",
        "shortName": "Albania",
        "color": "#a8b87a",
        "highlight": "#d4e0a8",
        "climateBand": "mediterranean"
      },
      "geometry": {
        "type": "Polygon",
        "coordinates": [
          [
            [
              19.3,
              41.9
            ],
            [
              19.5,
              41.3
            ],
            [
              19.8,
              40.7
            ],
            [
              20.0,
              40.2
            ],
            [
              20.2,
              39.8
            ],
            [
              20.5,
              39.7
            ],
            [
              20.8,
              40.0
            ],
            [
              21.0,
              40.5
            ],
            [
              20.9,
              41.0
            ],
            [
              20.7,
              41.5
            ],
            [
              20.5,
              42.0
            ],
            [
              20.3,
              42.4
            ],
            [
              20.0,
              42.6
            ],
            [
              19.6,
              42.5
            ],
            [
              19.4,
              42.2
            ],
            [
              19.3,
              41.9
            ]
          ]
        ]
      }
    },
    {
      "type": "Feature",
      "id": "north-macedonia",
      "properties": {
        "id": "north-macedonia",
        "name": "North Macedonia",
        "shortName": "N. Macedonia",
        "color": "#b8956a",
        "highlight": "#e0c898",
        "climateBand": "humid-subtropical"
      },
      "geometry": {
        "type": "Polygon",
        "coordinates": [
          [
            [
              20.5,
              41.5
            ],
            [
              20.7,
              41.0
            ],
            [
              21.0,
              40.9
            ],
            [
              21.5,
              41.0
            ],
            [
              22.0,
              41.1
            ],
            [
              22.5,
              41.2
            ],
            [
              22.9,
              41.5
            ],
            [
              22.8,
              42.0
            ],
            [
              22.4,
              42.3
            ],
            [
              21.8,
              42.3
            ],
            [
              21.2,
              42.2
            ],
            [
              20.7,
              42.0
            ],
            [
              20.5,
              41.5
            ]
          ]
        ]
      }
    },
    {
      "type": "Feature",
      "id": "serbia",
      "properties": {
        "id": "serbia",
        "name": "Serbia",
        "shortName": "Serbia",
        "color": "#9a8b6e",
        "highlight": "#c8b898",
        "climateBand": "continental"
      },
      "geometry": {
        "type": "Polygon",
        "coordinates": [
          [
            [
              18.9,
              45.9
            ],
            [
              19.5,
              46.1
            ],
            [
              20.5,
              46.0
            ],
            [
              21.5,
              45.5
            ],
            [
              22.5,
              45.0
            ],
            [
              22.8,
              44.5
            ],
            [
              22.7,
              43.8
            ],
            [
              22.5,
              43.2
            ],
            [
              22.0,
              42.6
            ],
            [
              21.5,
              42.4
            ],
            [
              21.0,
              42.5
            ],
            [
              20.5,
              42.8
            ],
            [
              20.0,
              43.2
            ],
            [
              19.5,
              43.5
            ],
            [
              19.2,
              44.0
            ],
            [
              19.0,
              44.5
            ],
            [
              18.9,
              45.2
            ],
            [
              18.9,
              45.9
            ]
          ]
        ]
      }
    },
    {
      "type": "Feature",
      "id": "kosovo",
      "properties": {
        "id": "kosovo",
        "name": "Kosovo",
        "shortName": "Kosovo",
        "color": "#b8a078",
        "highlight": "#e0c8a0",
        "climateBand": "continental"
      },
      "geometry": {
        "type": "Polygon",
        "coordinates": [
          [
            [
              20.1,
              42.7
            ],
            [
              20.3,
              42.2
            ],
            [
              20.6,
              41.9
            ],
            [
              21.0,
              42.0
            ],
            [
              21.4,
              42.2
            ],
            [
              21.7,
              42.5
            ],
            [
              21.6,
              42.9
            ],
            [
              21.3,
              43.2
            ],
            [
              20.8,
              43.2
            ],
            [
              20.3,
              43.0
            ],
            [
              20.1,
              42.7
            ]
          ]
        ]
      }
    },
    {
      "type": "Feature",
      "id": "montenegro",
      "properties": {
        "id": "montenegro",
        "name": "Montenegro",
        "shortName": "Montenegro",
        "color": "#7a9a8a",
        "highlight": "#a8c8b8",
        "climateBand": "mediterranean"
      },
      "geometry": {
        "type": "Polygon",
        "coordinates": [
          [
            [
              18.5,
              42.5
            ],
            [
              18.6,
              42.1
            ],
            [
              18.9,
              41.9
            ],
            [
              19.3,
              42.0
            ],
            [
              19.7,
              42.2
            ],
            [
              20.1,
              42.5
            ],
            [
              20.3,
              43.0
            ],
            [
              20.0,
              43.4
            ],
            [
              19.5,
              43.5
            ],
            [
              19.0,
              43.3
            ],
            [
              18.7,
              43.0
            ],
            [
              18.5,
              42.5
            ]
          ]
        ]
      }
    },
    {
      "type": "Feature",
      "id": "bosnia",
      "properties": {
        "id": "bosnia",
        "name": "Bosnia and Herzegovina",
        "shortName": "Bosnia & Herzegovina",
        "color": "#8a9a7a",
        "highlight": "#b8c8a8",
        "climateBand": "mixed"
      },
      "geometry": {
        "type": "Polygon",
        "coordinates": [
          [
            [
              15.8,
              44.9
            ],
            [
              16.5,
              45.2
            ],
            [
              17.5,
              45.1
            ],
            [
              18.5,
              44.9
            ],
            [
              19.3,
              44.5
            ],
            [
              19.5,
              44.0
            ],
            [
              19.4,
              43.5
            ],
            [
              19.0,
              43.0
            ],
            [
              18.5,
              42.7
            ],
            [
              17.8,
              42.6
            ],
            [
              17.2,
              42.8
            ],
            [
              16.5,
              43.2
            ],
            [
              16.0,
              43.8
            ],
            [
              15.8,
              44.3
            ],
            [
              15.8,
              44.9
            ]
          ]
        ]
      }
    },
    {
      "type": "Feature",
      "id": "croatia",
      "properties": {
        "id": "croatia",
        "name": "Croatia",
        "shortName": "Croatia",
        "color": "#7a8aaa",
        "highlight": "#a8b8d0",
        "climateBand": "mediterranean"
      },
      "geometry": {
        "type": "Polygon",
        "coordinates": [
          [
            [
              13.6,
              45.5
            ],
            [
              14.0,
              45.2
            ],
            [
              14.5,
              44.8
            ],
            [
              15.0,
              44.2
            ],
            [
              15.5,
              43.6
            ],
            [
              16.0,
              43.2
            ],
            [
              16.5,
              43.0
            ],
            [
              17.0,
              42.8
            ],
            [
              17.5,
              42.6
            ],
            [
              18.0,
              42.5
            ],
            [
              18.5,
              42.6
            ],
            [
              18.8,
              43.0
            ],
            [
              18.5,
              43.5
            ],
            [
              18.0,
              44.0
            ],
            [
              17.5,
              44.5
            ],
            [
              17.0,
              45.0
            ],
            [
              16.5,
              45.5
            ],
            [
              16.0,
              45.8
            ],
            [
              15.5,
              46.2
            ],
            [
              15.0,
              46.5
            ],
            [
              14.5,
              46.4
            ],
            [
              14.0,
              46.0
            ],
            [
              13.7,
              45.7
            ],
            [
              13.6,
              45.5
            ]
          ]
        ]
      }
    },
    {
      "type": "Feature",
      "id": "slovenia",
      "properties": {
        "id": "slovenia",
        "name": "Slovenia",
        "shortName": "Slovenia",
        "color": "#6a9a7a",
        "highlight": "#98c8a8",
        "climateBand": "continental"
      },
      "geometry": {
        "type": "Polygon",
        "coordinates": [
          [
            [
              13.4,
              46.0
            ],
            [
              13.8,
              45.6
            ],
            [
              14.5,
              45.5
            ],
            [
              15.2,
              45.6
            ],
            [
              15.8,
              45.8
            ],
            [
              16.3,
              46.2
            ],
            [
              16.4,
              46.6
            ],
            [
              15.8,
              46.8
            ],
            [
              15.0,
              46.8
            ],
            [
              14.3,
              46.6
            ],
            [
              13.8,
              46.4
            ],
            [
              13.4,
              46.0
            ]
          ]
        ]
      }
    },
    {
      "type": "Feature",
      "id": "bulgaria",
      "properties": {
        "id": "bulgaria",
        "name": "Bulgaria",
        "shortName": "Bulgaria",
        "color": "#a89868",
        "highlight": "#d0c090",
        "climateBand": "humid-subtropical"
      },
      "geometry": {
        "type": "Polygon",
        "coordinates": [
          [
            [
              22.4,
              43.5
            ],
            [
              23.0,
              44.0
            ],
            [
              24.5,
              44.2
            ],
            [
              26.0,
              44.1
            ],
            [
              27.5,
              43.8
            ],
            [
              28.4,
              43.5
            ],
            [
              28.3,
              42.5
            ],
            [
              27.8,
              42.0
            ],
            [
              27.0,
              41.5
            ],
            [
              26.0,
              41.3
            ],
            [
              25.0,
              41.4
            ],
            [
              24.0,
              41.5
            ],
            [
              23.0,
              41.6
            ],
            [
              22.5,
              42.0
            ],
            [
              22.4,
              42.8
            ],
            [
              22.4,
              43.5
            ]
          ]
        ]
      }
    },
    {
      "type": "Feature",
      "id": "romania",
      "properties": {
        "id": "romania",
        "name": "Romania",
        "shortName": "Romania",
        "color": "#9a7a68",
        "highlight": "#c8a890",
        "climateBand": "continental"
      },
      "geometry": {
        "type": "Polygon",
        "coordinates": [
          [
            [
              20.3,
              46.2
            ],
            [
              21.5,
              47.0
            ],
            [
              23.0,
              47.8
            ],
            [
              24.5,
              48.0
            ],
            [
              26.0,
              48.0
            ],
            [
              27.5,
              47.5
            ],
            [
              28.5,
              47.0
            ],
            [
              29.5,
              46.0
            ],
            [
              29.6,
              45.0
            ],
            [
              29.0,
              44.5
            ],
            [
              28.5,
              44.0
            ],
            [
              28.0,
              43.7
            ],
            [
              27.0,
              43.8
            ],
            [
              25.5,
              43.8
            ],
            [
              24.0,
              43.9
            ],
            [
              22.5,
              44.5
            ],
            [
              21.5,
              45.0
            ],
            [
              20.5,
              45.5
            ],
            [
              20.3,
              46.2
            ]
          ]
        ]
      }
    },
    {
      "type": "Feature",
      "id": "turkey-aegean",
      "properties": {
        "id": "turkey-aegean",
        "name": "Turkey (Aegean & Marmara)",
        "shortName": "Turkey \u00b7 Aegean",
        "color": "#c09060",
        "highlight": "#e8b888",
        "climateBand": "mediterranean"
      },
      "geometry": {
        "type": "Polygon",
        "coordinates": [
          [
            [
              26.2,
              40.0
            ],
            [
              26.5,
              39.5
            ],
            [
              27.0,
              38.5
            ],
            [
              27.5,
              37.5
            ],
            [
              28.0,
              37.0
            ],
            [
              28.5,
              36.7
            ],
            [
              29.5,
              36.6
            ],
            [
              30.2,
              36.8
            ],
            [
              30.3,
              37.5
            ],
            [
              30.0,
              38.5
            ],
            [
              29.5,
              39.5
            ],
            [
              29.0,
              40.5
            ],
            [
              28.5,
              41.0
            ],
            [
              27.5,
              41.2
            ],
            [
              26.8,
              41.0
            ],
            [
              26.3,
              40.5
            ],
            [
              26.2,
              40.0
            ]
          ]
        ]
      }
    },
    {
      "type": "Feature",
      "id": "italy",
      "properties": {
        "id": "italy",
        "name": "Italy",
        "shortName": "Italy",
        "color": "#a87858",
        "highlight": "#d0a880",
        "climateBand": "mediterranean"
      },
      "geometry": {
        "type": "Polygon",
        "coordinates": [
          [
            [
              7.0,
              44.0
            ],
            [
              8.0,
              44.5
            ],
            [
              9.0,
              45.5
            ],
            [
              10.0,
              46.5
            ],
            [
              11.5,
              46.5
            ],
            [
              12.5,
              46.0
            ],
            [
              13.5,
              45.5
            ],
            [
              13.8,
              45.0
            ],
            [
              13.0,
              44.0
            ],
            [
              12.5,
              43.0
            ],
            [
              13.0,
              42.0
            ],
            [
              14.0,
              41.0
            ],
            [
              15.0,
              40.5
            ],
            [
              15.5,
              40.0
            ],
            [
              16.0,
              39.5
            ],
            [
              16.5,
              39.0
            ],
            [
              17.0,
              40.0
            ],
            [
              18.0,
              40.5
            ],
            [
              18.3,
              40.0
            ],
            [
              17.5,
              39.0
            ],
            [
              16.5,
              38.5
            ],
            [
              16.0,
              38.0
            ],
            [
              15.5,
              38.0
            ],
            [
              15.0,
              37.5
            ],
            [
              15.0,
              37.0
            ],
            [
              14.0,
              37.0
            ],
            [
              13.0,
              37.5
            ],
            [
              12.5,
              38.0
            ],
            [
              13.0,
              39.0
            ],
            [
              12.0,
              40.0
            ],
            [
              11.0,
              41.0
            ],
            [
              10.0,
              42.0
            ],
            [
              9.5,
              43.0
            ],
            [
              8.5,
              43.5
            ],
            [
              8.0,
              44.0
            ],
            [
              7.0,
              44.0
            ]
          ]
        ]
      }
    },
    {
      "type": "Feature",
      "id": "cyprus",
      "properties": {
        "id": "cyprus",
        "name": "Cyprus",
        "shortName": "Cyprus",
        "color": "#c8a870",
        "highlight": "#f0d0a0",
        "climateBand": "mediterranean"
      },
      "geometry": {
        "type": "Polygon",
        "coordinates": [
          [
            [
              32.3,
              35.0
            ],
            [
              32.5,
              34.7
            ],
            [
              33.0,
              34.6
            ],
            [
              33.5,
              34.7
            ],
            [
              34.0,
              34.9
            ],
            [
              34.5,
              35.2
            ],
            [
              34.4,
              35.5
            ],
            [
              34.0,
              35.6
            ],
            [
              33.5,
              35.7
            ],
            [
              33.0,
              35.6
            ],
            [
              32.6,
              35.3
            ],
            [
              32.3,
              35.0
            ]
          ]
        ]
      }
    },
    {
      "type": "Feature",
      "id": "spain-east",
      "properties": {
        "id": "spain-east",
        "name": "Spain (East / Mediterranean)",
        "shortName": "Spain \u00b7 Med",
        "color": "#b88858",
        "highlight": "#e0b080",
        "climateBand": "semi-arid"
      },
      "geometry": {
        "type": "Polygon",
        "coordinates": [
          [
            [
              -0.5,
              41.5
            ],
            [
              0.5,
              41.8
            ],
            [
              1.5,
              42.0
            ],
            [
              2.5,
              42.2
            ],
            [
              3.2,
              41.8
            ],
            [
              3.0,
              40.5
            ],
            [
              2.5,
              39.5
            ],
            [
              1.5,
              38.5
            ],
            [
              0.5,
              37.5
            ],
            [
              -0.2,
              37.0
            ],
            [
              -0.8,
              37.5
            ],
            [
              -0.5,
              39.0
            ],
            [
              -0.5,
              41.5
            ]
          ]
        ]
      }
    },
    {
      "type": "Feature",
      "id": "france-south",
      "properties": {
        "id": "france-south",
        "name": "France (South / Provence)",
        "shortName": "France \u00b7 South",
        "color": "#8a7a98",
        "highlight": "#b8a8c8",
        "climateBand": "mediterranean"
      },
      "geometry": {
        "type": "Polygon",
        "coordinates": [
          [
            [
              3.2,
              43.5
            ],
            [
              4.0,
              43.2
            ],
            [
              5.0,
              43.2
            ],
            [
              6.0,
              43.3
            ],
            [
              7.0,
              43.7
            ],
            [
              7.5,
              44.5
            ],
            [
              7.0,
              45.2
            ],
            [
              6.0,
              45.3
            ],
            [
              5.0,
              45.0
            ],
            [
              4.0,
              44.5
            ],
            [
              3.5,
              44.0
            ],
            [
              3.2,
              43.5
            ]
          ]
        ]
      }
    },
    {
      "type": "Feature",
      "id": "maghreb-north",
      "properties": {
        "id": "maghreb-north",
        "name": "Maghreb (North coast)",
        "shortName": "Maghreb \u00b7 North",
        "color": "#a89070",
        "highlight": "#d0b898",
        "climateBand": "semi-arid"
      },
      "geometry": {
        "type": "Polygon",
        "coordinates": [
          [
            [
              -1.5,
              35.5
            ],
            [
              0.0,
              36.0
            ],
            [
              2.0,
              36.5
            ],
            [
              4.0,
              36.8
            ],
            [
              6.0,
              37.0
            ],
            [
              8.0,
              37.2
            ],
            [
              10.0,
              37.0
            ],
            [
              10.5,
              36.5
            ],
            [
              9.0,
              36.0
            ],
            [
              7.0,
              35.8
            ],
            [
              5.0,
              35.5
            ],
            [
              3.0,
              35.3
            ],
            [
              1.0,
              35.2
            ],
            [
              -1.0,
              35.3
            ],
            [
              -1.5,
              35.5
            ]
          ]
        ]
      }
    }
  ]
}
